STARLINK-31926          
1 59879U 24098X   26068.95670227  .00009866  00000+0  36545-3 0  9995
2 59879  42.9990 265.9804 0001255 279.3622  80.7088 15.27769593102009
TROLL                   
1 62658U 25009BB  26068.22522958  .00013174  00000+0  48220-3 0  9994
2 62658  97.3932 150.7169 0001816  59.1850 300.9568 15.28164315118170
